GSAT-29                 
1 43698U 18089A   26176.53589994  .00000096  00000+0  00000+0 0  9993
2 43698   0.0865 263.2606 0003791 168.3175  90.0516  1.00270111 27875
ES'HAIL 2               
1 43700U 18090A   26176.31616961  .00000154  00000+0  00000+0 0  9995
2 43700   0.0181 336.2990 0002175 153.2886 283.4885  1.00273905 27752
GEO-KOMPSAT-2A          
1 43823U 18100A   26176.55039733 -.00000334  00000+0  00000+0 0  9996
2 43823   0.0444 160.6969 0002454 290.4796 148.9093  1.00270706 27717
GSAT-11                 
1 43824U 18100B   26176.53962662 -.00000067  00000+0  00000+0 0  9994
2 43824   0.0941 267.3844 0008166 184.1659  90.4026  1.00272115 27566
GSAT-7A                 
1 43864U 18105A   26176.53737329  .00000036  00000+0  00000+0 0  9998
2 43864   0.0419  99.4306 0002254 335.0000  95.4755  1.00273916 27537
COSMOS 2533             
1 43867U 18107A   26175.98914169 -.00000029  00000+0  00000+0 0  9993
2 43867   0.0477 101.2417 0000522  13.6998 224.2716  1.00271301 27524
ZHONGXING-2D            
1 43920U 19001A   26176.55074399 -.00000326  00000+0  00000+0 0  9993
2 43920   0.0383 179.7574 0001451 173.7209 248.4876  1.00273890 54169
HELLAS-SAT 4 & SGS-1    
1 44034U 19007A   26176.53269326  .00000163  00000+0  00000+0 0  9998
2 44034   0.0735 127.7184 0005387  11.9312   4.7980  1.00272057 27452
GSAT-31                 
1 44035U 19007B   26176.17802072  .00000135  00000+0  00000+0 0  9999
2 44035   0.0480 253.7093 0000863 127.8305   3.7289  1.00270259 27040
NUSANTARA SATU          
1 44048U 19009A   26176.18794995 -.00000225  00000+0  00000+0 0  9991
2 44048   0.0436 145.2794 0004692 332.1124   9.5958  1.00270399 26852
ZHONGXING-6C            
1 44067U 19012A   26175.77536519 -.00000327  00000+0  00000+0 0  9999
2 44067   0.0921  76.8771 0014230 334.9383 270.6523  1.00271115 26814
WGS 10 (USA 291)        
1 44071U 19014A   26176.25164470  .00000056  00000+0  00000+0 0  9991
2 44071   0.0190  24.8682 0000567  19.8213  19.6021  1.00272238 26697
TIANLIAN 2-01           
1 44076U 19017A   26176.54023330 -.00000097  00000+0  00000+0 0  9996
2 44076   0.5618  83.1405 0001218  36.8419  65.1866  1.00272025 26736
ARABSAT-6A              
1 44186U 19021A   26176.53104660  .00000164  00000+0  00000+0 0  9992
2 44186   0.0497  11.2310 0001110 350.9461 133.1891  1.00269611 26240
BEIDOU-3 IGSO-1         
1 44204U 19023A   26175.54148515 -.00000226  00000+0  00000+0 0  9992
2 44204  58.7053  37.5725 0025747 224.9564 323.4804  1.00289953  7288
BEIDOU-2 G8             
1 44231U 19027A   26176.53378139 -.00000239  00000+0  00000+0 0  9997
2 44231   1.6800  74.5261 0009991 284.5247 251.2753  1.00269097 26160
YAMAL 601               
1 44307U 19031A   26175.96438456  .00000129  00000+0  00000+0 0  9998
2 44307   0.0252  78.4208 0002749  14.8109 216.0575  1.00272990 26007
AT&T T-16               
1 44333U 19034A   26175.35600175 -.00000107  00000+0  00000+0 0  9999
2 44333   0.0237  70.4808 0000422 236.8286 352.4898  1.00269632 25703
EUTELSAT 7C             
1 44334U 19034B   26175.31443304  .00000056  00000+0  00000+0 0  9997
2 44334   0.0733 180.0215 0003441 252.1066 320.5463  1.00271247  6906
BEIDOU-3 IGSO-2         
1 44337U 19035A   26174.86225344 -.00000062  00000+0  00000+0 0  9990
2 44337  55.2489 158.8038 0039423 216.4706 326.6444  1.00264372 25737
COSMOS 2539             
1 44457U 19048A   26175.60059123  .00000090  00000+0  00000+0 0  9990
2 44457   0.0378  95.9580 0000338  14.9021  30.1106  1.00275673 25303
EDRS-C                  
1 44475U 19049A   26176.58169812  .00000000  00000+0  00000+0 0  9997
2 44475   0.0149  27.8953 0001217  74.5551 163.1196  1.00267439 25299
INTELSAT 39 (IS-39)     
1 44476U 19049B   26176.53728662  .00000000  00000+0  00000+0 0  9997
2 44476   0.0262   7.3307 0000771 349.0040 172.7126  1.00270995 25211
AMOS-17                 
1 44479U 19050A   26174.93020750  .00000116  00000+0  00000+0 0  9995
2 44479   0.0161 338.2141 0001929 139.5461 146.1952  1.00271061 25250
AEHF-5 (USA 292)        
1 44481U 19051A   26176.47128407 -.00000247  00000+0  00000+0 0  9994
2 44481   1.4464 336.8671 0065894 359.8003 199.6969  1.00271988 25345
EUTELSAT 5 WEST B       
1 44624U 19067A   26176.38135030 -.00000032  00000+0  00000+0 0  9992
2 44624   0.0620   2.8569 0003372  90.9668 311.9796  1.00271391 24515
MEV-1                   
1 44625U 19067B   26167.92963140 -.00000149  00000+0  00000+0 0  9993
2 44625   0.8740 268.9828 0002794 179.8034 307.2103  1.00269616 61744
TJS-4                   
1 44637U 19070A   26176.54153330 -.00000160  00000+0  00000+0 0  9993
2 44637   0.0393  86.1793 0004356 317.7908 148.1873  1.00273464 24621
TIBA-1                  
1 44800U 19080A   26176.53199993  .00000166  00000+0  00000+0 0  9995
2 44800   0.0501   0.3327 0002397 112.2815  28.1180  1.00276648 24145
INMARSAT GX5            
1 44801U 19080B   26176.52716043  .00000085  00000+0  00000+0 0  9996
2 44801   0.0401  24.1127 0002447  79.9027  10.4228  1.00271713  6872
JCSAT-18 (KACIFIC 1)    
1 44868U 19091A   26174.93671059 -.00000196  00000+0  00000+0 0  9995
2 44868   0.0365 230.5457 0000707 160.8075   7.9439  1.00263997 24075
