OBJECT_NAME,OBJECT_ID,EPOCH,MEAN_MOTION,ECCENTRICITY,INCLINATION,RA_OF_ASC_NODE,ARG_OF_PERICENTER,MEAN_ANOMALY,EPHEMERIS_TYPE,CLASSIFICATION_TYPE,NORAD_CAT_ID,ELEMENT_SET_NO,REV_AT_EPOCH,BSTAR,MEAN_MOTION_DOT,MEAN_MOTION_DDOT
GSAT-29,2018-089A,2026-06-25T12:51:41.754816,1.00270111,.00037918,0.0865,263.2606,168.3175,90.0516,0,U,43698,999,2787,0,.96E-6,0
ES'HAIL 2,2018-090A,2026-06-25T07:35:17.054304,1.00273905,.0002175,0.0181,336.2990,153.2886,283.4885,0,U,43700,999,2775,0,.154E-5,0
GEO-KOMPSAT-2A,2018-100A,2026-06-25T13:12:34.329312,1.00270706,.00024544,0.0444,160.6969,290.4796,148.9093,0,U,43823,999,2771,0,-.334E-5,0
GSAT-11,2018-100B,2026-06-25T12:57:03.739968,1.00272115,.00081664,0.0941,267.3844,184.1659,90.4026,0,U,43824,999,2756,0,-.67E-6,0
GSAT-7A,2018-105A,2026-06-25T12:53:49.052256,1.00273916,.00022546,0.0419,99.4306,335.0000,95.4755,0,U,43864,999,2753,0,.36E-6,0
COSMOS 2533,2018-107A,2026-06-24T23:44:21.842016,1.00271301,.0000522,0.0477,101.2417,13.6998,224.2716,0,U,43867,999,2752,0,-.29E-6,0
ZHONGXING-2D,2019-001A,2026-06-25T13:13:04.280736,1.00273890,.00014516,0.0383,179.7574,173.7209,248.4876,0,U,43920,999,5416,0,-.326E-5,0
HELLAS-SAT 4 & SGS-1,2019-007A,2026-06-25T12:47:04.697664,1.00272057,.00053878,0.0735,127.7184,11.9312,4.7980,0,U,44034,999,2745,0,.163E-5,0
GSAT-31,2019-007B,2026-06-25T04:16:20.990208,1.00270259,.00008637,0.0480,253.7093,127.8305,3.7289,0,U,44035,999,2704,0,.135E-5,0
NUSANTARA SATU,2019-009A,2026-06-25T04:30:38.875680,1.00270399,.00046928,0.0436,145.2794,332.1124,9.5958,0,U,44048,999,2685,0,-.225E-5,0
ZHONGXING-6C,2019-012A,2026-06-24T18:36:31.552416,1.00271115,.00142309,0.0921,76.8771,334.9383,270.6523,0,U,44067,999,2681,0,-.327E-5,0
WGS 10 (USA 291),2019-014A,2026-06-25T06:02:22.102080,1.00272238,.00005679,0.0190,24.8682,19.8213,19.6021,0,U,44071,999,2669,0,.56E-6,0
TIANLIAN 2-01,2019-017A,2026-06-25T12:57:56.157120,1.00272025,.00012183,0.5618,83.1405,36.8419,65.1866,0,U,44076,999,2673,0,-.97E-6,0
ARABSAT-6A,2019-021A,2026-06-25T12:44:42.426240,1.00269611,.00011103,0.0497,11.2310,350.9461,133.1891,0,U,44186,999,2624,0,.164E-5,0
BEIDOU-3 IGSO-1,2019-023A,2026-06-24T12:59:44.316960,1.00289953,.00257477,58.7053,37.5725,224.9564,323.4804,0,U,44204,999,728,0,-.226E-5,0
BEIDOU-2 G8,2019-027A,2026-06-25T12:48:38.712096,1.00269097,.0009991,1.6800,74.5261,284.5247,251.2753,0,U,44231,999,2616,0,-.239E-5,0
YAMAL 601,2019-031A,2026-06-24T23:08:42.825984,1.00272990,.00027491,0.0252,78.4208,14.8109,216.0575,0,U,44307,999,2600,0,.129E-5,0
AT&T T-16,2019-034A,2026-06-24T08:32:38.551200,1.00269632,.00004225,0.0237,70.4808,236.8286,352.4898,0,U,44333,999,2570,0,-.107E-5,0
EUTELSAT 7C,2019-034B,2026-06-24T07:32:47.014656,1.00271247,.00034416,0.0733,180.0215,252.1066,320.5463,0,U,44334,999,690,0,.56E-6,0
BEIDOU-3 IGSO-2,2019-035A,2026-06-23T20:41:38.697216,1.00264372,.00394231,55.2489,158.8038,216.4706,326.6444,0,U,44337,999,2573,0,-.62E-6,0
COSMOS 2539,2019-048A,2026-06-24T14:24:51.082272,1.00275673,.00003386,0.0378,95.9580,14.9021,30.1106,0,U,44457,999,2530,0,.9E-6,0
EDRS-C,2019-049A,2026-06-25T13:57:38.717568,1.00267439,.00012173,0.0149,27.8953,74.5551,163.1196,0,U,44475,999,2529,0,0,0
INTELSAT 39 (IS-39),2019-049B,2026-06-25T12:53:41.563968,1.00270995,.00007718,0.0262,7.3307,349.0040,172.7126,0,U,44476,999,2521,0,0,0
AMOS-17,2019-050A,2026-06-23T22:19:29.928000,1.00271061,.00019291,0.0161,338.2141,139.5461,146.1952,0,U,44479,999,2525,0,.116E-5,0
AEHF-5 (USA 292),2019-051A,2026-06-25T11:18:38.943648,1.00271988,.0065894,1.4464,336.8671,359.8003,199.6969,0,U,44481,999,2534,0,-.247E-5,0
EUTELSAT 5 WEST B,2019-067A,2026-06-25T09:09:08.665920,1.00271391,.00033725,0.0620,2.8569,90.9668,311.9796,0,U,44624,999,2451,0,-.32E-6,0
MEV-1,2019-067B,2026-06-16T22:18:40.152960,1.00269616,.00027946,0.8740,268.9828,179.8034,307.2103,0,U,44625,999,6174,0,-.149E-5,0
TJS-4,2019-070A,2026-06-25T12:59:48.477120,1.00273464,.00043564,0.0393,86.1793,317.7908,148.1873,0,U,44637,999,2462,0,-.16E-5,0
TIBA-1,2019-080A,2026-06-25T12:46:04.793952,1.00276648,.00023971,0.0501,0.3327,112.2815,28.1180,0,U,44800,999,2414,0,.166E-5,0
INMARSAT GX5,2019-080B,2026-06-25T12:39:06.661152,1.00271713,.00024475,0.0401,24.1127,79.9027,10.4228,0,U,44801,999,687,0,.85E-6,0
JCSAT-18 (KACIFIC 1),2019-091A,2026-06-23T22:28:51.794976,1.00263997,.00007071,0.0365,230.5457,160.8075,7.9439,0,U,44868,999,2407,0,-.196E-5,0
